{
  "type": "FeatureCollection",
  "features": [
    {
      "type": "Feature",
      "properties": {
        "norad_id": 27954,
        "name": "GALAXY 13 (HORIZONS-1)",
        "group": "intelsat",
        "lat": -0.3347591709585788,
        "lon": -74.76345575579946,
        "alt_km": 35776.45696256017,
        "timestamp": "2025-12-25T22:42:16.664017+00:00",
        "meta_object_name": "GALAXY 13 (HORIZONS-1)",
        "meta_object_id": "2003-044A",
        "meta_epoch": "2025-12-25T10:01:38.629344",
        "meta_mean_motion": 1.00272014,
        "meta_eccentricity": 0.0002314,
        "meta_inclination": 0.9696,
        "meta_ra_of_asc_node": 86.3052,
        "meta_arg_of_pericenter": 185.7907,
        "meta_mean_anomaly": 182.463,
        "meta_ephemeris_type": 0,
        "meta_classification_type": "U",
        "meta_norad_cat_id": 27954,
        "meta_element_set_no": 999,
        "meta_rev_at_epoch": 4483,
        "meta_bstar": 0,
        "meta_mean_motion_dot": 1.54e-06,
        "meta_mean_motion_ddot": 0,
        "tle_line1": "1 27954U 03044A   25359.41780821  .00000154  00000+0  00000+0 0  9991",
        "tle_line2": "2 27954   0.9696  86.3052 0002314 185.7907 182.4630  1.00272014 44830"
      },
      "geometry": {
        "type": "Point",
        "coordinates": [
          -74.76345575579946,
          -0.3347591709585788
        ]
      }
    },
    {
      "type": "Feature",
      "properties": {
        "norad_id": 28358,
        "name": "INTELSAT 10-02",
        "group": "intelsat",
        "lat": 0.02225220690929546,
        "lon": 74.31308614364839,
        "alt_km": 35789.697376814045,
        "timestamp": "2025-12-25T22:42:16.664029+00:00",
        "meta_object_name": "INTELSAT 10-02",
        "meta_object_id": "2004-022A",
        "meta_epoch": "2025-12-25T02:23:21.556320",
        "meta_mean_motion": 1.00270312,
        "meta_eccentricity": 0.0001221,
        "meta_inclination": 0.0162,
        "meta_ra_of_asc_node": 46.3363,
        "meta_arg_of_pericenter": 259.2593,
        "meta_mean_anomaly": 183.1536,
        "meta_ephemeris_type": 0,
        "meta_classification_type": "U",
        "meta_norad_cat_id": 28358,
        "meta_element_set_no": 999,
        "meta_rev_at_epoch": 7881,
        "meta_bstar": 0,
        "meta_mean_motion_dot": 1e-07,
        "meta_mean_motion_ddot": 0,
        "tle_line1": "1 28358U 04022A   25359.09955505  .00000010  00000+0  00000+0 0  9995",
        "tle_line2": "2 28358   0.0162  46.3363 0001221 259.2593 183.1536  1.00270312 78810"
      },
      "geometry": {
        "type": "Point",
        "coordinates": [
          74.31308614364839,
          0.02225220690929546
        ]
      }
    },
    {
      "type": "Feature",
      "properties": {
        "norad_id": 28626,
        "name": "XM-3 (RHYTHM)",
        "group": "intelsat",
        "lat": 0.16219129409192065,
        "lon": 126.78690853792018,
        "alt_km": 36166.87926823466,
        "timestamp": "2025-12-25T22:42:16.664041+00:00",
        "meta_object_name": "XM-3 (RHYTHM)",
        "meta_object_id": "2005-008A",
        "meta_epoch": "2025-12-25T17:26:19.235328",
        "meta_mean_motion": 0.9895028,
        "meta_eccentricity": 0.0002212,
        "meta_inclination": 0.2062,
        "meta_ra_of_asc_node": 82.2629,
        "meta_arg_of_pericenter": 272.7612,
        "meta_mean_anomaly": 53.5894,
        "meta_ephemeris_type": 0,
        "meta_classification_type": "U",
        "meta_norad_cat_id": 28626,
        "meta_element_set_no": 999,
        "meta_rev_at_epoch": 4087,
        "meta_bstar": 0,
        "meta_mean_motion_dot": 9.1e-07,
        "meta_mean_motion_ddot": 0,
        "tle_line1": "1 28626U 05008A   25359.72661152  .00000091  00000+0  00000+0 0  9999",
        "tle_line2": "2 28626   0.2062  82.2629 0002212 272.7612  53.5894  0.98950280 40873"
      },
      "geometry": {
        "type": "Point",
        "coordinates": [
          126.78690853792018,
          0.16219129409192065
        ]
      }
    },
    {
      "type": "Feature",
      "properties": {
        "norad_id": 28659,
        "name": "DIRECTV 8",
        "group": "intelsat",
        "lat": -0.03437358375177246,
        "lon": -43.760561136886345,
        "alt_km": 35775.13450250497,
        "timestamp": "2025-12-25T22:42:16.664053+00:00",
        "meta_object_name": "DIRECTV 8",
        "meta_object_id": "2005-019A",
        "meta_epoch": "2025-12-25T07:36:38.659104",
        "meta_mean_motion": 1.00271727,
        "meta_eccentricity": 0.0003055,
        "meta_inclination": 0.0173,
        "meta_ra_of_asc_node": 36.9805,
        "meta_arg_of_pericenter": 247.0732,
        "meta_mean_anomaly": 165.1455,
        "meta_ephemeris_type": 0,
        "meta_classification_type": "U",
        "meta_norad_cat_id": 28659,
        "meta_element_set_no": 999,
        "meta_rev_at_epoch": 7533,
        "meta_bstar": 0,
        "meta_mean_motion_dot": 2.2e-07,
        "meta_mean_motion_ddot": 0,
        "tle_line1": "1 28659U 05019A   25359.31711411  .00000022  00000+0  00000+0 0  9990",
        "tle_line2": "2 28659   0.0173  36.9805 0003055 247.0732 165.1455  1.00271727 75334"
      },
      "geometry": {
        "type": "Point",
        "coordinates": [
          -43.760561136886345,
          -0.03437358375177246
        ]
      }
    },
    {
      "type": "Feature",
      "properties": {
        "norad_id": 28702,
        "name": "GALAXY 28 (G-28)",
        "group": "intelsat",
        "lat": -2.8588545615509107,
        "lon": -6.343470245723704,
        "alt_km": 35700.46445508933,
        "timestamp": "2025-12-25T22:42:16.664065+00:00",
        "meta_object_name": "GALAXY 28 (G-28)",
        "meta_object_id": "2005-022A",
        "meta_epoch": "2025-12-25T06:15:34.001280",
        "meta_mean_motion": 1.00599998,
        "meta_eccentricity": 0.0003524,
        "meta_inclination": 2.8519,
        "meta_ra_of_asc_node": 81.1358,
        "meta_arg_of_pericenter": 159.6201,
        "meta_mean_anomaly": 224.7014,
        "meta_ephemeris_type": 0,
        "meta_classification_type": "U",
        "meta_norad_cat_id": 28702,
        "meta_element_set_no": 999,
        "meta_rev_at_epoch": 5023,
        "meta_bstar": 0,
        "meta_mean_motion_dot": -2.29e-06,
        "meta_mean_motion_ddot": 0,
        "tle_line1": "1 28702U 05022A   25359.26081020 -.00000229  00000+0  00000+0 0  9993",
        "tle_line2": "2 28702   2.8519  81.1358 0003524 159.6201 224.7014  1.00599998 50230"
      },
      "geometry": {
        "type": "Point",
        "coordinates": [
          -6.343470245723704,
          -2.8588545615509107
        ]
      }
    },
    {
      "type": "Feature",
      "properties": {
        "norad_id": 29236,
        "name": "GALAXY 16 (G-16)",
        "group": "intelsat",
        "lat": 0.005920581772247947,
        "lon": -23.730521302246302,
        "alt_km": 35780.58936504653,
        "timestamp": "2025-12-25T22:42:16.664077+00:00",
        "meta_object_name": "GALAXY 16 (G-16)",
        "meta_object_id": "2006-023A",
        "meta_epoch": "2025-12-25T10:42:38.666304",
        "meta_mean_motion": 1.00269688,
        "meta_eccentricity": 0.0002737,
        "meta_inclination": 0.0046,
        "meta_ra_of_asc_node": 247.0299,
        "meta_arg_of_pericenter": 30.9577,
        "meta_mean_anomaly": 237.8648,
        "meta_ephemeris_type": 0,
        "meta_classification_type": "U",
        "meta_norad_cat_id": 29236,
        "meta_element_set_no": 999,
        "meta_rev_at_epoch": 7123,
        "meta_bstar": 0,
        "meta_mean_motion_dot": 0,
        "meta_mean_motion_ddot": 0,
        "tle_line1": "1 29236U 06023A   25359.44628086  .00000000  00000+0  00000+0 0  9993",
        "tle_line2": "2 29236   0.0046 247.0299 0002737  30.9577 237.8648  1.00269688 71238"
      },
      "geometry": {
        "type": "Point",
        "coordinates": [
          -23.730521302246302,
          0.005920581772247947
        ]
      }
    },
    {
      "type": "Feature",
      "properties": {
        "norad_id": 29494,
        "name": "DIRECTV 9S",
        "group": "intelsat",
        "lat": -1.8780132849902242,
        "lon": -25.921831746496377,
        "alt_km": 35778.87907892162,
        "timestamp": "2025-12-25T22:42:16.664089+00:00",
        "meta_object_name": "DIRECTV 9S",
        "meta_object_id": "2006-043A",
        "meta_epoch": "2025-12-25T16:00:17.788320",
        "meta_mean_motion": 1.00271625,
        "meta_eccentricity": 0.0003043,
        "meta_inclination": 1.9716,
        "meta_ra_of_asc_node": 83.0746,
        "meta_arg_of_pericenter": 196.6277,
        "meta_mean_anomaly": 313.5922,
        "meta_ephemeris_type": 0,
        "meta_classification_type": "U",
        "meta_norad_cat_id": 29494,
        "meta_element_set_no": 999,
        "meta_rev_at_epoch": 4964,
        "meta_bstar": 0,
        "meta_mean_motion_dot": -9.2e-07,
        "meta_mean_motion_ddot": 0,
        "tle_line1": "1 29494U 06043A   25359.66687255 -.00000092  00000+0  00000+0 0  9990",
        "tle_line2": "2 29494   1.9716  83.0746 0003043 196.6277 313.5922  1.00271625 49642"
      },
      "geometry": {
        "type": "Point",
        "coordinates": [
          -25.921831746496377,
          -1.8780132849902242
        ]
      }
    }
  ]
}